NORAD_CAT_ID,OBJECT_NAME,OBJECT_TYPE,EPOCH,MEAN_MOTION,ECCENTRICITY,INCLINATION,RA_OF_ASC_NODE,ARG_OF_PERICENTER,MEAN_ANOMALY,BSTAR,MEAN_MOTION_DOT,MEAN_MOTION_DDOT,TLE_LINE0,TLE_LINE1,TLE_LINE2,SEMIMAJOR_AXIS,PERIOD,APOGEE,PERIGEE,DECAYED
51745.0,STARLINK-3449,PAYLOAD,2023-11-30 12:18:56,15.08843886,0.0001703,53.2188,85.9358,70.6938,289.4239,2.29e-06,-2.52e-06,0.0,0 STARLINK-3449,1 51745U 22016AH  23334.51314983 -.00000252  00000-0  22900-5 0  9990,2 51745  53.2188  85.9358 0001703  70.6938 289.4239 15.08843886 99368,6917.869,95.437,540.912,538.555,0.0
51745.0,STARLINK-3449,PAYLOAD,2023-12-01 13:45:05,15.08845646,0.0001733,53.2194,81.1781,68.1797,291.9379,6.4192e-05,7.34e-06,0.0,0 STARLINK-3449,1 51745U 22016AH  23335.57298573  .00000734  00000-0  64192-4 0  9995,2 51745  53.2194  81.1781 0001733  68.1797 291.9379 15.08845646 99528,6917.863,95.437,540.927,538.529,0.0
51745.0,STARLINK-3449,PAYLOAD,2023-12-02 12:00:28,15.08870073,0.0001585,53.2189,77.0084,60.7856,299.3294,0.00011287,1.51e-05,0.0,0 STARLINK-3449,1 51745U 22016AH  23336.50032423  .00001510  00000-0  11287-3 0  9998,2 51745  53.2189  77.0084 0001585  60.7856 299.3294 15.08870073 99666,6917.788,95.436,540.75,538.557,0.0
51745.0,STARLINK-3449,PAYLOAD,2023-12-02 13:35:53,15.08816764,0.0002246,53.2183,76.713,49.5395,310.5792,-0.00029907,-5.042e-05,0.0,0 STARLINK-3449,1 51745U 22016AH  23336.56659630 -.00005042  00000-0 -29907-3 0  9993,2 51745  53.2183  76.7130 0002246  49.5395 310.5792 15.08816764 98548,6917.951,95.439,541.37,538.263,0.0
51745.0,STARLINK-3449,PAYLOAD,2023-12-03 13:26:42,15.08810383,0.0001351,53.2168,72.2489,82.9188,277.1958,-0.0004007,-6.654e-05,0.0,0 STARLINK-3449,1 51745U 22016AH  23337.56021103 -.00006654  00000-0 -40070-3 0  9996,2 51745  53.2168  72.2489 0001351  82.9188 277.1958 15.08810383 98695,6917.971,95.439,540.771,538.901,0.0
51745.0,STARLINK-3449,PAYLOAD,2023-12-04 11:42:04,15.088581,0.0001373,53.2189,68.0893,86.2836,273.8313,5.6361e-05,6.1e-06,0.0,0 STARLINK-3449,1 51745U 22016AH  23338.48755013  .00000610  00000-0  56361-4 0  9997,2 51745  53.2189  68.0893 0001373  86.2836 273.8313 15.08858100 99969,6917.825,95.436,540.64,538.74,0.0
51745.0,STARLINK-3449,PAYLOAD,2023-12-05 11:32:52,15.08839374,0.0001458,53.2191,63.6296,95.326,264.7899,0.00037446,5.676e-05,0.0,0 STARLINK-3449,1 51745U 22016AH  23339.48115826  .00005676  00000-0  37446-3 0  9999,2 51745  53.2191  63.6296 0001458  95.3260 264.7899 15.08839374100116,6917.882,95.438,540.756,538.739,0.0
51745.0,STARLINK-3449,PAYLOAD,2023-12-05 13:08:15,15.08842099,0.0001403,53.219,63.3328,91.738,268.3773,0.00039225,5.961e-05,0.0,0 STARLINK-3449,1 51745U 22016AH  23339.54739614  .00005961  00000-0  39225-3 0  9997,2 51745  53.2190  63.3328 0001403  91.7380 268.3773 15.08842099 98992,6917.874,95.437,540.71,538.768,0.0
51745.0,STARLINK-3449,PAYLOAD,2023-12-06 11:23:39,15.08850434,0.0001506,53.2199,59.1702,79.843,280.2732,-3.1281e-05,-7.86e-06,0.0,0 STARLINK-3449,1 51745U 22016AH  23340.47475998 -.00000786  00000-0 -31281-4 0  9990,2 51745  53.2199  59.1702 0001506  79.8430 280.2732 15.08850434100261,6917.848,95.437,540.755,538.672,0.0
51745.0,STARLINK-3449,PAYLOAD,2023-12-07 09:39:03,15.08844318,0.0001501,53.2193,55.0078,78.7222,281.3939,-7.7129e-05,-1.515e-05,0.0,0 STARLINK-3449,1 51745U 22016AH  23341.40212081 -.00001515  00000-0 -77129-4 0  9998,2 51745  53.2193  55.0078 0001501  78.7222 281.3939 15.08844318100409,6917.867,95.437,540.771,538.694,0.0
51745.0,STARLINK-3449,PAYLOAD,2023-12-07 14:25:12,15.08849052,0.0001407,53.2183,54.115,78.1654,281.9496,-3.6529e-05,-8.69e-06,0.0,0 STARLINK-3449,1 51745U 22016AH  23341.60083540 -.00000869  00000-0 -36529-4 0  9996,2 51745  53.2183  54.1150 0001407  78.1654 281.9496 15.08849052 99307,6917.853,95.437,540.691,538.744,0.0
51745.0,STARLINK-3449,PAYLOAD,2023-12-08 11:05:13,15.08837536,0.0001537,53.2177,50.2496,75.4688,284.6474,4.6318e-05,4.49e-06,0.0,0 STARLINK-3449,1 51745U 22016AH  23342.46195927  .00000449  00000-0  46318-4 0  9993,2 51745  53.2177  50.2496 0001537  75.4688 284.6474 15.08837536100562,6917.888,95.438,540.816,538.69,0.0
51745.0,STARLINK-3449,PAYLOAD,2023-12-08 14:16:00,15.08804909,0.0001611,53.2189,49.6497,81.723,278.3945,0.00055578,8.56e-05,0.0,0 STARLINK-3449,1 51745U 22016AH  23342.59444759  .00008560  00000-0  55578-3 0  9996,2 51745  53.2189  49.6497 0001611  81.7230 278.3945 15.08804909 99450,6917.988,95.44,540.967,538.738,0.0
51745.0,STARLINK-3449,PAYLOAD,2023-12-09 10:56:00,15.08839182,0.0001515,53.2186,45.7831,79.3376,280.7786,2.4081e-05,9.5e-07,0.0,0 STARLINK-3449,1 51745U 22016AH  23343.45555865  .00000095  00000-0  24081-4 0  9994,2 51745  53.2186  45.7831 0001515  79.3376 280.7786 15.08839182100716,6917.883,95.438,540.796,538.7,0.0
51745.0,STARLINK-3449,PAYLOAD,2023-12-10 04:25:14,15.08838886,0.000154,53.2192,42.5124,98.1223,261.9944,1.0519e-05,-1.21e-06,0.0,0 STARLINK-3449,1 51745U 22016AH  23344.18419846 -.00000121  00000-0  10519-4 0  9995,2 51745  53.2192  42.5124 0001540  98.1223 261.9944 15.08838886 99692,6917.884,95.438,540.814,538.683,0.0
51745.0,STARLINK-3449,PAYLOAD,2023-12-11 10:37:34,15.08842205,0.0001472,53.2187,36.8662,94.1887,265.9273,5.0327e-05,5.13e-06,0.0,0 STARLINK-3449,1 51745U 22016AH  23345.44275555  .00000513  00000-0  50327-4 0  9997,2 51745  53.2187  36.8662 0001472  94.1887 265.9273 15.08842205101014,6917.874,95.437,540.757,538.72,0.0
51745.0,STARLINK-3449,PAYLOAD,2023-12-12 08:52:58,15.08836354,0.0001566,53.2181,32.7042,102.43,257.6868,6.3717e-06,-1.87e-06,0.0,0 STARLINK-3449,1 51745U 22016AH  23346.37012147 -.00000187  00000-0  63717-5 0  9992,2 51745  53.2181  32.7042 0001566 102.4300 257.6868 15.08836354101153,6917.892,95.438,540.84,538.673,0.0
51745.0,STARLINK-3449,PAYLOAD,2023-12-13 10:19:08,15.08840082,0.0001446,53.2175,27.9438,85.3819,274.7338,2.8386e-05,1.64e-06,0.0,0 STARLINK-3449,1 51745U 22016AH  23347.42996039  .00000164  00000-0  28386-4 0  9996,2 51745  53.2175  27.9438 0001446  85.3819 274.7338 15.08840082101315,6917.88,95.438,540.745,538.745,0.0
51745.0,STARLINK-3449,PAYLOAD,2023-12-14 10:09:55,15.08841575,0.0001473,53.2175,23.486,81.2696,278.8463,7.8815e-05,9.67e-06,0.0,0 STARLINK-3449,1 51745U 22016AH  23348.42355984  .00000967  00000-0  78815-4 0  9998,2 51745  53.2175  23.4860 0001473  81.2696 278.8463 15.08841575100336,6917.876,95.437,540.76,538.722,0.0
51745.0,STARLINK-3449,PAYLOAD,2023-12-15 10:00:43,15.08838429,0.0002038,53.2188,19.0214,61.8167,298.3031,3.2141e-05,2.23e-06,0.0,0 STARLINK-3449,1 51745U 22016AH  23349.41716637  .00000223  00000-0  32141-4 0  9991,2 51745  53.2188  19.0214 0002038  61.8167 298.3031 15.08838429101613,6917.885,95.438,541.16,538.34,0.0
51745.0,STARLINK-3449,PAYLOAD,2023-12-16 08:16:07,15.08838787,0.0002005,53.2186,14.8604,65.3033,294.8167,1.3866e-05,-6.8e-07,0.0,0 STARLINK-3449,1 51745U 22016AH  23350.34452810 -.00000068  00000-0  13866-4 0  9996,2 51745  53.2186  14.8604 0002005  65.3033 294.8167 15.08838787100620,6917.884,95.438,541.136,538.362,0.0
51745.0,STARLINK-3449,PAYLOAD,2023-12-17 08:06:54,15.0883989,0.0001574,53.2168,10.4042,81.2301,278.8869,3.9172e-05,3.35e-06,0.0,0 STARLINK-3449,1 51745U 22016AH  23351.33812641  .00000335  00000-0  39172-4 0  9992,2 51745  53.2168  10.4042 0001574  81.2301 278.8869 15.08839890101902,6917.881,95.438,540.835,538.657,0.0
51745.0,STARLINK-3449,PAYLOAD,2023-12-18 06:22:17,15.0884246,0.0001622,53.2177,6.2413,97.8679,262.2498,7.5993e-05,9.22e-06,0.0,0 STARLINK-3449,1 51745U 22016AH  23352.26548287  .00000922  00000-0  75993-4 0  9990,2 51745  53.2177   6.2413 0001622  97.8679 262.2498 15.08842460100914,6917.873,95.437,540.86,538.616,0.0
51745.0,STARLINK-3449,PAYLOAD,2023-12-19 07:48:28,15.08833449,0.0001458,53.2176,1.4822,102.0813,258.0343,-3.2031e-05,-7.98e-06,0.0,0 STARLINK-3449,1 51745U 22016AH  23353.32533527 -.00000798  00000-0 -32031-4 0  9998,2 51745  53.2176   1.4822 0001458 102.0813 258.0343 15.08833449102203,6917.9,95.438,540.774,538.757,0.0
51745.0,STARLINK-3449,PAYLOAD,2023-12-20 06:03:52,15.08843938,0.0001402,53.217,357.3179,99.6239,260.4911,-4.9729e-05,-1.079e-05,0.0,0 STARLINK-3449,1 51745U 22016AH  23354.25269381 -.00001079  00000-0 -49729-4 0  9990,2 51745  53.2170 357.3179 0001402  99.6239 260.4911 15.08843938102344,6917.868,95.437,540.703,538.763,0.0
51745.0,STARLINK-3449,PAYLOAD,2023-12-21 07:30:02,15.08850137,0.0001411,53.2172,352.558,85.3922,274.7232,0.00024069,3.546e-05,0.0,0 STARLINK-3449,1 51745U 22016AH  23355.31252331  .00003546  00000-0  24069-3 0  9993,2 51745  53.2172 352.5580 0001411  85.3922 274.7232 15.08850137102501,6917.849,95.437,540.691,538.738,0.0
51745.0,STARLINK-3449,PAYLOAD,2023-12-22 04:10:04,15.08834065,0.0001621,53.2166,348.6869,59.4921,300.6231,1.2306e-05,-9.2e-07,0.0,0 STARLINK-3449,1 51745U 22016AH  23356.17366212 -.00000092  00000-0  12306-4 0  9998,2 51745  53.2166 348.6869 0001621  59.4921 300.6231 15.08834065102638,6917.899,95.438,540.885,538.642,0.0
51745.0,STARLINK-3449,PAYLOAD,2023-12-22 07:20:50,15.08836127,0.0001384,53.217,348.1005,82.1312,277.9837,3.7394e-05,3.07e-06,0.0,0 STARLINK-3449,1 51745U 22016AH  23356.30614066  .00000307  00000-0  37394-4 0  9998,2 51745  53.2170 348.1005 0001384  82.1312 277.9837 15.08836127101529,6917.892,95.438,540.715,538.8,0.0
51745.0,STARLINK-3449,PAYLOAD,2023-12-23 04:00:50,15.0884806,0.0001486,53.2169,344.2342,68.5232,291.5919,-5.3489e-05,-1.139e-05,0.0,0 STARLINK-3449,1 51745U 22016AH  23357.16725607 -.00001139  00000-0 -53489-4 0  9996,2 51745  53.2169 344.2342 0001486  68.5232 291.5919 15.08848060102781,6917.856,95.437,540.749,538.693,0.0
51745.0,STARLINK-3449,PAYLOAD,2023-12-23 08:47:00,15.08846625,0.0001935,53.2183,343.3303,63.624,296.4951,4.4139e-05,4.14e-06,0.0,0 STARLINK-3449,1 51745U 22016AH  23357.36597314  .00000414  00000-0  44139-4 0  9995,2 51745  53.2183 343.3303 0001935  63.6240 296.4951 15.08846625101681,6917.86,95.437,541.064,538.387,0.0
